NORAD_CAT_ID,OBJECT_NAME,OBJECT_TYPE,EPOCH,MEAN_MOTION,ECCENTRICITY,INCLINATION,RA_OF_ASC_NODE,ARG_OF_PERICENTER,MEAN_ANOMALY,BSTAR,MEAN_MOTION_DOT,MEAN_MOTION_DDOT,TLE_LINE0,TLE_LINE1,TLE_LINE2,SEMIMAJOR_AXIS,PERIOD,APOGEE,PERIGEE,DECAYED
53719.0,STARLINK-4644,PAYLOAD,2022-12-19 10:00:00,15.39312271,0.0001519,53.2177,110.6977,54.4768,173.2108,-0.031495,-0.01139142,0.0,0 STARLINK-4644,1 53719U 22107V   22353.41667824 -.01139142  00000-0 -31495-1 0  9996,2 53719  53.2177 110.6977 0001519  54.4768 173.2108 15.39312271  1303,6826.279,93.548,449.181,447.107,0.0
53719.0,STARLINK-4644,PAYLOAD,2022-12-19 22:00:00,15.3809196,0.0001607,53.2171,108.3488,44.2853,74.6046,-0.032797,-0.01139506,0.0,0 STARLINK-4644,1 53719U 22107V   22353.91667824 -.01139506  00000-0 -32797-1 0  9991,2 53719  53.2171 108.3488 0001607  44.2853  74.6046 15.38091960  1301,6829.889,93.622,452.851,450.656,0.0
53719.0,STARLINK-4644,PAYLOAD,2022-12-20 14:00:01,15.36494718,0.0001606,53.217,105.2228,50.5959,159.7944,-0.035954,-0.01181658,0.0,0 STARLINK-4644,1 53719U 22107V   22354.58334491 -.01181658  00000-0 -35954-1 0  9999,2 53719  53.2170 105.2228 0001606  50.5959 159.7944 15.36494718  1302,6834.621,93.72,457.584,455.389,0.0
53719.0,STARLINK-4644,PAYLOAD,2022-12-20 16:00:00,15.36259806,0.0001448,53.2173,104.8332,49.5345,262.0346,-0.034775,-0.01138258,0.0,0 STARLINK-4644,1 53719U 22107V   22354.66667824 -.01138258  00000-0 -34775-1 0  9995,2 53719  53.2173 104.8332 0001448  49.5345 262.0346 15.36259806 16898,6835.318,93.734,458.173,456.193,0.0
53719.0,STARLINK-4644,PAYLOAD,2022-12-21 14:00:01,15.34023983,0.0001538,53.2172,100.5487,42.5688,297.773,-0.037451,-0.01140587,0.0,0 STARLINK-4644,1 53719U 22107V   22355.58334491 -.01140587  00000-0 -37451-1 0  9990,2 53719  53.2172 100.5487 0001538  42.5688 297.7730 15.34023983 17036,6841.958000000001,93.871,464.875,462.771,0.0
53719.0,STARLINK-4644,PAYLOAD,2022-12-22 14:00:01,15.31582799,0.0001835,53.2173,95.8916,37.8011,63.6779,-0.040449,-0.01140294,0.0,0 STARLINK-4644,1 53719U 22107V   22356.58334491 -.01140294  00000-0 -40449-1 0  9997,2 53719  53.2173  95.8916 0001835  37.8011  63.6779 15.31582799  1305,6849.226,94.02,472.348,469.835,0.0
53719.0,STARLINK-4644,PAYLOAD,2022-12-22 16:00:00,15.31376444,0.0001831,53.2174,95.5044,42.6718,158.5055,-0.040503,-0.01134941,0.0,0 STARLINK-4644,1 53719U 22107V   22356.66667824 -.01134941  00000-0 -40503-1 0  9998,2 53719  53.2174  95.5044 0001831  42.6718 158.5055 15.31376444 17204,6849.842,94.033,472.961,470.452,0.0
53719.0,STARLINK-4644,PAYLOAD,2022-12-22 22:00:00,15.30767315,0.0001812,53.2172,94.3422,39.0653,100.8382,-0.041368,-0.01137052,0.0,0 STARLINK-4644,1 53719U 22107V   22356.91667824 -.01137052  00000-0 -41368-1 0  9992,2 53719  53.2172  94.3422 0001812  39.0653 100.8382 15.30767315  1303,6851.659000000002,94.07,474.765,472.282,0.0
53719.0,STARLINK-4644,PAYLOAD,2022-12-23 02:00:01,15.32119175,0.0001909,53.2157,93.5582,69.5871,273.4754,0.00089992,0.00028033,0.0,0 STARLINK-4644,1 53719U 22107V   22357.08334491  .00028033  00000-0  89992-3 0  9994,2 53719  53.2157  93.5582 0001909  69.5871 273.4754 15.32119175 17260,6847.628000000002,93.987,470.8,468.186,0.0
53719.0,STARLINK-4644,PAYLOAD,2022-12-23 14:00:01,15.32149732,0.0002111,53.216,91.2336,64.755,157.715,0.00022172,6.617e-05,0.0,0 STARLINK-4644,1 53719U 22107V   22357.58334491  .00006617  00000-0  22172-3 0  9990,2 53719  53.2160  91.2336 0002111  64.7550 157.7150 15.32149732  1307,6847.5369999999975,93.986,470.847,467.956,0.0
53719.0,STARLINK-4644,PAYLOAD,2022-12-23 22:00:01,15.32181669,0.000204,53.2162,89.682,64.9682,197.1696,-0.0010239,-0.00032484,0.0,0 STARLINK-4644,1 53719U 22107V   22357.91668981 -.00032484  00000-0 -10239-2 0  9994,2 53719  53.2162  89.6820 0002040  64.9682 197.1696 15.32181669  1305,6847.441999999999,93.984,470.703,467.91,0.0
53719.0,STARLINK-4644,PAYLOAD,2022-12-24 10:00:00,15.32190109,0.0002114,53.2165,87.3557,67.4157,74.0946,-0.00077784,-0.00024797,0.0,0 STARLINK-4644,1 53719U 22107V   22358.41667824 -.00024797  00000-0 -77784-3 0  9992,2 53719  53.2165  87.3557 0002114  67.4157  74.0946 15.32190109 17472,6847.416,93.983,470.729,467.834,0.0
53719.0,STARLINK-4644,PAYLOAD,2022-12-24 14:00:01,15.32170524,0.0002213,53.2165,86.5812,64.1827,277.1509,0.00029977,9.084e-05,0.0,0 STARLINK-4644,1 53719U 22107V   22358.58334491  .00009084  00000-0  29977-3 0  9992,2 53719  53.2165  86.5812 0002213  64.1827 277.1509 15.32170524  1300,6847.475,93.984,470.855,467.824,0.0
53719.0,STARLINK-4644,PAYLOAD,2022-12-24 22:00:00,15.32199147,0.000213,53.2166,85.0292,64.4596,316.5039,-0.00090299,-0.00028721,0.0,0 STARLINK-4644,1 53719U 22107V   22358.91667824 -.00028721  00000-0 -90299-3 0  9994,2 53719  53.2166  85.0292 0002130  64.4596 316.5039 15.32199147  1309,6847.389,93.983,470.713,467.796,0.0
53719.0,STARLINK-4644,PAYLOAD,2022-12-25 08:00:01,15.32205071,0.0002179,53.2169,83.0902,68.2055,92.3141,-0.00040169,-0.00013009,0.0,0 STARLINK-4644,1 53719U 22107V   22359.33334491 -.00013009  00000-0 -40169-3 0  9996,2 53719  53.2169  83.0902 0002179  68.2055  92.3141 15.32205071 17611,6847.371999999999,93.982,470.729,467.745,0.0
53719.0,STARLINK-4644,PAYLOAD,2022-12-25 14:00:01,15.32186239,0.0002278,53.2168,81.9284,63.2546,37.014,0.00041997,0.00012887,0.0,0 STARLINK-4644,1 53719U 22107V   22359.58334491  .00012887  00000-0  41997-3 0  9994,2 53719  53.2168  81.9284 0002278  63.2546  37.0140 15.32186239  1308,6847.428000000001,93.983,470.853,467.733,0.0
53719.0,STARLINK-4644,PAYLOAD,2022-12-26 00:00:00,15.32194444,0.0002169,53.2168,79.988,65.5219,174.3194,0.00030778,9.344e-05,0.0,0 STARLINK-4644,1 53719U 22107V   22360.00001157  .00009344  00000-0  30778-3 0  9992,2 53719  53.2168  79.9880 0002169  65.5219 174.3194 15.32194444  1309,6847.403,93.983,470.754,467.783,0.0
53719.0,STARLINK-4644,PAYLOAD,2022-12-26 06:00:00,15.32207949,0.0002232,53.2167,78.8246,68.8859,110.6958,0.00031917,9.708e-05,0.0,0 STARLINK-4644,1 53719U 22107V   22360.25001157  .00009708  00000-0  31917-3 0  9999,2 53719  53.2167  78.8246 0002232  68.8859 110.6958 15.32207949 17751,6847.363,93.982,470.757,467.7,0.0
53719.0,STARLINK-4644,PAYLOAD,2022-12-26 14:00:01,15.3219576,0.0002368,53.2166,77.2754,62.2589,157.0033,0.00078589,0.00024482,0.0,0 STARLINK-4644,1 53719U 22107V   22360.58334491  .00024482  00000-0  78589-3 0  9997,2 53719  53.2166  77.2754 0002368  62.2589 157.0033 15.32195760  1305,6847.4,93.983,470.886,467.643,0.0
53719.0,STARLINK-4644,PAYLOAD,2022-12-27 00:00:00,15.32205669,0.0002247,53.2163,75.3348,66.3153,292.5452,0.00068774,0.00021376,0.0,0 STARLINK-4644,1 53719U 22107V   22361.00001157  .00021376  00000-0  68774-3 0  9999,2 53719  53.2163  75.3348 0002247  66.3153 292.5452 15.32205669  1308,6847.37,93.982,470.774,467.696,0.0
53719.0,STARLINK-4644,PAYLOAD,2022-12-27 06:16:03,15.32204852,0.0002171,53.2168,74.1196,68.993,291.1304,9.2319e-05,2.544e-05,0.0,0 STARLINK-4644,1 53719U 22107V   22361.26115204  .00002544  00000-0  92319-4 0  9995,2 53719  53.2168  74.1196 0002171  68.9930 291.1304 15.32204852 17905,6847.371999999999,93.982,470.724,467.751,0.0
53719.0,STARLINK-4644,PAYLOAD,2022-12-27 14:05:42,15.32212977,0.0002189,53.2171,72.6018,69.63600000000001,290.4878,0.00010073,2.81e-05,0.0,0 STARLINK-4644,1 53719U 22107V   22361.58729224  .00002810  00000-0  10073-3 0  9995,2 53719  53.2171  72.6018 0002189  69.6360 290.4878 15.32212977 18422,6847.348000000001,93.982,470.712,467.714,0.0
53719.0,STARLINK-4644,PAYLOAD,2022-12-28 07:18:54,15.32226746,0.0002237,53.2171,69.2632,70.4989,289.6254,0.00011813,3.361e-05,0.0,0 STARLINK-4644,1 53719U 22107V   22362.30479864  .00003361  00000-0  11813-3 0  9993,2 53719  53.2171  69.2632 0002237  70.4989 289.6254 15.32226746 18064,6847.307,93.981,470.704,467.641,0.0
53719.0,STARLINK-4644,PAYLOAD,2022-12-28 13:34:37,15.3223181,0.0002229,53.2171,68.0492,70.5347,289.5897,0.00011467,3.252e-05,0.0,0 STARLINK-4644,1 53719U 22107V   22362.56570917  .00003252  00000-0  11467-3 0  9996,2 53719  53.2171  68.0492 0002229  70.5347 289.5897 15.32231810 18571,6847.292,93.981,470.6830000000001,467.631,0.0
53719.0,STARLINK-4644,PAYLOAD,2022-12-29 05:13:53,15.32245818,0.0002342,53.2161,65.0139,70.2864,289.8391,0.00013701,3.959e-05,0.0,0 STARLINK-4644,1 53719U 22107V   22363.21798303  .00003959  00000-0  13701-3 0  9997,2 53719  53.2161  65.0139 0002342  70.2864 289.8391 15.32245818 18207,6847.25,93.98,470.719,467.512,0.0
53719.0,STARLINK-4644,PAYLOAD,2022-12-29 11:29:36,15.32252699,0.0002340999999999,53.2161,63.7998,70.4315,289.694,0.00016256,4.768e-05,0.0,0 STARLINK-4644,1 53719U 22107V   22363.47889023  .00004768  00000-0  16256-3 0  9992,2 53719  53.2161  63.7998 0002341  70.4315 289.6940 15.32252699 18716,6847.23,93.979,470.698,467.492,0.0
53719.0,STARLINK-4644,PAYLOAD,2022-12-30 03:08:51,15.32270233,0.0002396999999999,53.2154,60.7645,70.359,289.7671,0.00025105,7.571e-05,0.0,0 STARLINK-4644,1 53719U 22107V   22364.13115545  .00007571  00000-0  25105-3 0  9995,2 53719  53.2154  60.7645 0002397  70.3590 289.7671 15.32270233 18344,6847.178000000001,93.978,470.684,467.401,0.0
53719.0,STARLINK-4644,PAYLOAD,2022-12-30 10:58:29,15.32277976,0.0002411,53.2153,59.2469,70.4862,289.6401,0.00031153,9.488e-05,0.0,0 STARLINK-4644,1 53719U 22107V   22364.45728637  .00009488  00000-0  31153-3 0  9991,2 53719  53.2153  59.2469 0002411  70.4862 289.6401 15.32277976 18868,6847.155,93.978,470.67,467.369,0.0
53719.0,STARLINK-4644,PAYLOAD,2022-12-31 04:11:39,15.32293566,0.0002403,53.2154,55.9079,71.5515,288.5748,0.00033923,0.00010371,0.0,0 STARLINK-4644,1 53719U 22107V   22365.17476851  .00010371  00000-0  33923-3 0  9999,2 53719  53.2154  55.9079 0002403  71.5515 288.5748 15.32293566 18503,6847.108,93.977,470.619,467.328,0.0
